[{"OBJECT_NAME":"STARLINK-3207","OBJECT_ID":"2021-115AJ","EPOCH":"2026-03-09T11:43:14.845728","MEAN_MOTION":15.08835744,"ECCENTRICITY":0.00015294,"INCLINATION":53.217,"RA_OF_ASC_NODE":140.0239,"ARG_OF_PERICENTER":103.8178,"MEAN_ANOMALY":256.2985,"EPHEMERIS_TYPE":0,"CLASSIFICATION_TYPE":"U","NORAD_CAT_ID":49756,"ELEMENT_SET_NO":999,"REV_AT_EPOCH":23564,"BSTAR":5.349943e-6,"MEAN_MOTION_DOT":-2.03e-6,"MEAN_MOTION_DDOT":0},{"OBJECT_NAME":"CZ-6A DEB","OBJECT_ID":"2024-126C","EPOCH":"2026-03-09T22:45:09.534528","MEAN_MOTION":15.08339588,"ECCENTRICITY":0.00034995,"INCLINATION":97.8272,"RA_OF_ASC_NODE":88.0703,"ARG_OF_PERICENTER":249.9832,"MEAN_ANOMALY":110.1019,"EPHEMERIS_TYPE":0,"CLASSIFICATION_TYPE":"U","NORAD_CAT_ID":60213,"ELEMENT_SET_NO":999,"REV_AT_EPOCH":9177,"BSTAR":0.0010886629,"MEAN_MOTION_DOT":0.00016868,"MEAN_MOTION_DDOT":0}]
